NORAD_CAT_ID,OBJECT_NAME,OBJECT_TYPE,EPOCH,MEAN_MOTION,ECCENTRICITY,INCLINATION,RA_OF_ASC_NODE,ARG_OF_PERICENTER,MEAN_ANOMALY,BSTAR,MEAN_MOTION_DOT,MEAN_MOTION_DDOT,TLE_LINE0,TLE_LINE1,TLE_LINE2,SEMIMAJOR_AXIS,PERIOD,APOGEE,PERIGEE,DECAYED
51962.0,STARLINK-3697,PAYLOAD,2022-12-18 12:02:25,15.08841293,0.0003086,53.2171,273.7347,24.9749,335.1392,0.00011734,1.579e-05,0.0,0 STARLINK-3697,1 51962U 22025G   22352.50168303  .00001579  00000-0  11734-3 0  9995,2 51962  53.2171 273.7347 0003086  24.9749 335.1392 15.08841293 44598,6917.876,95.437,541.876,537.607,0.0
51962.0,STARLINK-3697,PAYLOAD,2022-12-19 05:31:41,15.08826884,0.0003097,53.2162,270.4621,21.331,338.7811,7.3531e-05,8.81e-06,0.0,0 STARLINK-3697,1 51962U 22025G   22353.23033716  .00000881  00000-0  73531-4 0  9994,2 51962  53.2162 270.4621 0003097  21.3310 338.7811 15.08826884 44701,6917.92,95.438,541.928,537.643,0.0
51962.0,STARLINK-3697,PAYLOAD,2022-12-20 00:36:16,15.0885205,0.0002982,53.2147,266.8949,18.5082,341.6018,0.00026018,3.856e-05,0.0,0 STARLINK-3697,1 51962U 22025G   22354.02519456  .00003856  00000-0  26018-3 0  9994,2 51962  53.2147 266.8949 0002982  18.5082 341.6018 15.08852050 44821,6917.844,95.437,541.771,537.646,0.0
51962.0,STARLINK-3697,PAYLOAD,2022-12-20 11:43:58,15.08862485,0.0003049,53.2144,264.8133,20.6969,339.4146,0.00022339,3.271e-05,0.0,0 STARLINK-3697,1 51962U 22025G   22354.48886684  .00003271  00000-0  22339-3 0  9997,2 51962  53.2144 264.8133 0003049  20.6969 339.4146 15.08862485 43788,6917.812,95.436,541.786,537.567,0.0
51962.0,STARLINK-3697,PAYLOAD,2022-12-21 03:37:51,15.08830565,0.0002962,53.2153,261.8388,20.4589,339.6522,1.6307e-06,-2.63e-06,0.0,0 STARLINK-3697,1 51962U 22025G   22355.15128886 -.00000263  00000-0  16307-5 0  9994,2 51962  53.2153 261.8388 0002962  20.4589 339.6522 15.08830565 44994,6917.909000000002,95.438,541.823,537.725,0.0
51962.0,STARLINK-3697,PAYLOAD,2022-12-21 11:34:47,15.08826292,0.0003101,53.2154,260.3515,21.3021,338.81,-7.219999999999999e-05,-1.437e-05,0.0,0 STARLINK-3697,1 51962U 22025G   22355.48249536 -.00001437  00000-0 -72200-4 0  9994,2 51962  53.2154 260.3515 0003101  21.3021 338.8100 15.08826292 43936,6917.922,95.438,541.933,537.6419999999998,0.0
51962.0,STARLINK-3697,PAYLOAD,2022-12-21 17:56:20,15.08823092,0.0002848,53.2152,259.1625,17.328,342.7809,-0.00015185,-2.703e-05,0.0,0 STARLINK-3697,1 51962U 22025G   22355.74745926 -.00002703  00000-0 -15185-3 0  9992,2 51962  53.2152 259.1625 0002848  17.3280 342.7809 15.08823092 45084,6917.932,95.439,541.7669999999998,537.827,0.0
51962.0,STARLINK-3697,PAYLOAD,2022-12-22 03:28:38,15.08838759,0.0003102,53.2157,257.3787,25.1868,334.9275,-0.0002166,-3.734e-05,0.0,0 STARLINK-3697,1 51962U 22025G   22356.14489414 -.00003734  00000-0 -21660-3 0  9994,2 51962  53.2157 257.3787 0003102  25.1868 334.9275 15.08838759 45144,6917.884,95.438,541.895,537.6030000000002,0.0
51962.0,STARLINK-3697,PAYLOAD,2022-12-22 20:57:52,15.08839039,0.0003119,53.2151,254.1073,22.1134,337.9992,3.0591e-05,1.98e-06,0.0,0 STARLINK-3697,1 51962U 22025G   22356.87352558  .00000198  00000-0  30591-4 0  9995,2 51962  53.2151 254.1073 0003119  22.1134 337.9992 15.08839039 44142,6917.8830000000025,95.438,541.906,537.591,0.0
51962.0,STARLINK-3697,PAYLOAD,2022-12-22 22:33:15,15.08838686,0.0003123,53.2151,253.8099,22.142,337.9707,2.889e-05,1.71e-06,0.0,0 STARLINK-3697,1 51962U 22025G   22356.93976600  .00000171  00000-0  28890-4 0  9992,2 51962  53.2151 253.8099 0003123  22.1420 337.9707 15.08838686 45264,6917.884,95.438,541.91,537.589,0.0
51962.0,STARLINK-3697,PAYLOAD,2022-12-23 03:19:25,15.08825939,0.0003126,53.2152,252.9178,23.9924,336.1213,8.937700000000001e-05,1.134e-05,0.0,0 STARLINK-3697,1 51962U 22025G   22357.13849296  .00001134  00000-0  89377-4 0  9992,2 51962  53.2152 252.9178 0003126  23.9924 336.1213 15.08825939 45297,6917.9230000000025,95.438,541.951,537.626,0.0
51962.0,STARLINK-3697,PAYLOAD,2022-12-23 09:40:58,15.08826572,0.0003148,53.2152,251.7284,24.5582,335.5559,8.8284e-05,1.116e-05,0.0,0 STARLINK-3697,1 51962U 22025G   22357.40345502  .00001116  00000-0  88284-4 0  9999,2 51962  53.2152 251.7284 0003148  24.5582 335.5559 15.08826572 44225,6917.920999999999,95.438,541.964,537.609,0.0
51962.0,STARLINK-3697,PAYLOAD,2022-12-23 17:37:54,15.08822566,0.0003145,53.2149,250.2418,24.3872,335.7268,0.00014702,2.051e-05,0.0,0 STARLINK-3697,1 51962U 22025G   22357.73465880  .00002051  00000-0  14702-3 0  9999,2 51962  53.2149 250.2418 0003145  24.3872 335.7268 15.08822566 44274,6917.934,95.439,541.974,537.623,0.0
51962.0,STARLINK-3697,PAYLOAD,2022-12-24 03:10:11,15.08856087,0.000318,53.2149,248.4555,21.4321,338.6804,0.00033385,5.031e-05,0.0,0 STARLINK-3697,1 51962U 22025G   22358.13207263  .00005031  00000-0  33385-3 0  9992,2 51962  53.2149 248.4555 0003180  21.4321 338.6804 15.08856087 45444,6917.831,95.437,541.896,537.496,0.0
51962.0,STARLINK-3697,PAYLOAD,2022-12-24 09:31:44,15.08851324,0.0003318,53.2146,247.2673,23.8763,336.2383,0.00020794,3.023e-05,0.0,0 STARLINK-3697,1 51962U 22025G   22358.39703840  .00003023  00000-0  20794-3 0  9991,2 51962  53.2146 247.2673 0003318  23.8763 336.2383 15.08851324 45487,6917.846,95.437,542.006,537.415,0.0
51962.0,STARLINK-3697,PAYLOAD,2022-12-24 20:39:27,15.08835452,0.0003114,53.215,245.1858,21.1849,338.9271,9.964e-06,-1.3e-06,0.0,0 STARLINK-3697,1 51962U 22025G   22358.86073249 -.00000130  00000-0  99640-5 0  9991,2 51962  53.2150 245.1858 0003114  21.1849 338.9271 15.08835452 45551,6917.894,95.438,541.914,537.605,0.0
51962.0,STARLINK-3697,PAYLOAD,2022-12-25 09:22:32,15.08838861,0.0003039,53.2158,242.8076,27.3058,332.8093,5.2305e-05,5.44e-06,0.0,0 STARLINK-3697,1 51962U 22025G   22359.39064933  .00000544  00000-0  52305-4 0  9994,2 51962  53.2158 242.8076 0003039  27.3058 332.8093 15.08838861 44529,6917.884,95.438,541.851,537.6469999999998,0.0
51962.0,STARLINK-3697,PAYLOAD,2022-12-25 18:54:50,15.088402800000004,0.0003082,53.2151,241.022,24.1684,335.9452,1.763e-05,-8e-08,0.0,0 STARLINK-3697,1 51962U 22025G   22359.78808879 -.00000008  00000-0  17630-4 0  9990,2 51962  53.2151 241.0220 0003082  24.1684 335.9452 15.08840280 44589,6917.88,95.438,541.877,537.612,0.0
51962.0,STARLINK-3697,PAYLOAD,2022-12-26 01:16:23,15.08836018,0.0003125,53.2149,239.8322,23.3573,336.756,-2.4624e-05,-6.81e-06,0.0,0 STARLINK-3697,1 51962U 22025G   22360.05305267 -.00000681  00000-0 -24624-4 0  9994,2 51962  53.2149 239.8322 0003125  23.3573 336.7560 15.08836018 45731,6917.893,95.438,541.919,537.596,0.0
51962.0,STARLINK-3697,PAYLOAD,2022-12-26 09:13:20,15.08837615,0.0003199,53.2151,238.3462,22.7812,337.3321,-0.00027648,-4.686e-05,0.0,0 STARLINK-3697,1 51962U 22025G   22360.38426045 -.00004686  00000-0 -27648-3 0  9995,2 51962  53.2151 238.3462 0003199  22.7812 337.3321 15.08837615 44671,6917.888000000001,95.438,541.966,537.54,0.0
51962.0,STARLINK-3697,PAYLOAD,2022-12-26 21:56:24,15.08830996,0.0003118,53.2151,235.966,20.8007,339.3112,1.1246e-05,-1.1e-06,0.0,0 STARLINK-3697,1 51962U 22025G   22360.91417689 -.00000110  00000-0  11246-4 0  9993,2 51962  53.2151 235.9660 0003118  20.8007 339.3112 15.08830996 44754,6917.908,95.438,541.93,537.616,0.0
51962.0,STARLINK-3697,PAYLOAD,2022-12-27 01:07:11,15.08831687,0.0003252,53.2144,235.3722,23.3405,336.7735,3.6263e-05,2.88e-06,0.0,0 STARLINK-3697,1 51962U 22025G   22361.04665674  .00000288  00000-0  36263-4 0  9998,2 51962  53.2144 235.3722 0003252  23.3405 336.7735 15.08831687 44770,6917.906,95.438,542.021,537.521,0.0
51962.0,STARLINK-3697,PAYLOAD,2022-12-27 18:36:24,15.08842843,0.0003054,53.2159,232.0998,17.7327,342.3771,0.00012455,1.694e-05,0.0,0 STARLINK-3697,1 51962U 22025G   22361.77528474  .00001694  00000-0  12455-3 0  9992,2 51962  53.2159 232.0998 0003054  17.7327 342.3771 15.08842843 44886,6917.871999999999,95.437,541.849,537.624,0.0
51962.0,STARLINK-3697,PAYLOAD,2022-12-28 00:57:56,15.08853442,0.0003223,53.2156,230.9112,18.297,341.8138,0.00022245,3.255e-05,0.0,0 STARLINK-3697,1 51962U 22025G   22362.04023447  .00003255  00000-0  22245-3 0  9996,2 51962  53.2156 230.9112 0003223  18.2970 341.8138 15.08853442 46033,6917.839,95.437,541.934,537.475,0.0
51962.0,STARLINK-3697,PAYLOAD,2022-12-28 20:02:35,15.0883508,0.0003197,53.2143,227.3427,23.991,336.1230000000001,8.0721e-05,9.96e-06,0.0,0 STARLINK-3697,1 51962U 22025G   22362.83513044  .00000996  00000-0  80721-4 0  9993,2 51962  53.2143 227.3427 0003197  23.9910 336.1230 15.08835080 46156,6917.895,95.438,541.972,537.549,0.0
51962.0,STARLINK-3697,PAYLOAD,2022-12-29 00:48:44,15.08839305,0.0003431,53.2151,226.4501,21.893,338.2209,1.8313e-05,3e-08,0.0,0 STARLINK-3697,1 51962U 22025G   22363.03385037  .00000003  00000-0  18313-4 0  9992,2 51962  53.2151 226.4501 0003431  21.8930 338.2209 15.08839305 45071,6917.8830000000025,95.438,542.121,537.374,0.0
51962.0,STARLINK-3697,PAYLOAD,2022-12-29 21:28:47,15.08828056,0.0003177,53.2142,222.5827,28.4142,331.7023,-0.0002463999999999,-4.207e-05,0.0,0 STARLINK-3697,1 51962U 22025G   22363.89499067 -.00004207  00000-0 -24640-3 0  9996,2 51962  53.2142 222.5827 0003177  28.4142 331.7023 15.08828056 46315,6917.917,95.438,541.98,537.5840000000002,0.0
51962.0,STARLINK-3697,PAYLOAD,2022-12-29 23:04:10,15.08829827,0.0003503999999999,53.2153,222.2857,24.2543,335.8613,-0.00022512,-3.869e-05,0.0,0 STARLINK-3697,1 51962U 22025G   22363.96122982 -.00003869  00000-0 -22512-3 0  9992,2 51962  53.2153 222.2857 0003504  24.2543 335.8613 15.08829827 45215,6917.911,95.438,542.201,537.352,0.0
51962.0,STARLINK-3697,PAYLOAD,2022-12-30 21:19:33,15.08839114,0.0003364,53.2142,218.1234,22.9239,337.1902,9.5008e-05,1.224e-05,0.0,0 STARLINK-3697,1 51962U 22025G   22364.88857650  .00001224  00000-0  95008-4 0  9993,2 51962  53.2142 218.1234 0003364  22.9239 337.1902 15.08839114 46461,6917.8830000000025,95.438,542.075,537.4209999999998,0.0
